[{"OBJECT_NAME":"BRO-10","OBJECT_ID":"2023-174CD","EPOCH":"2026-03-09T23:34:33.500352","MEAN_MOTION":15.73235012,"ECCENTRICITY":0.00030107,"INCLINATION":97.3656,"RA_OF_ASC_NODE":162.3972,"ARG_OF_PERICENTER":146.5418,"MEAN_ANOMALY":213.6037,"EPHEMERIS_TYPE":0,"CLASSIFICATION_TYPE":"U","NORAD_CAT_ID":58331,"ELEMENT_SET_NO":999,"REV_AT_EPOCH":13076,"BSTAR":0.0013973225,"MEAN_MOTION_DOT":0.00196052,"MEAN_MOTION_DDOT":0},{"OBJECT_NAME":"STARLINK-11320 [DTC]","OBJECT_ID":"2024-209D","EPOCH":"2026-03-09T22:43:24.758112","MEAN_MOTION":15.69859313,"ECCENTRICITY":0.00031454,"INCLINATION":53.1576,"RA_OF_ASC_NODE":10.3359,"ARG_OF_PERICENTER":122.7243,"MEAN_ANOMALY":237.4079,"EPHEMERIS_TYPE":0,"CLASSIFICATION_TYPE":"U","NORAD_CAT_ID":61942,"ELEMENT_SET_NO":999,"REV_AT_EPOCH":7671,"BSTAR":0.0025131128,"MEAN_MOTION_DOT":0.00317797,"MEAN_MOTION_DDOT":0}]
